STARLINK-30494          
1 57970U 23151G   26068.36049035 -.00001272  00000+0 -35691-4 0  9993
2 57970  43.0027 192.4566 0001155 241.5536 118.5200 15.28417441137406
STARLINK-31064          
1 58631U 23203P   26068.07774079 -.00001956  00000+0 -61590-4 0  9993
2 58631  43.0091  74.3436 0001504 279.6227  80.4455 15.27563758124590
